INTELSAT 10 (IS-10)     
1 26766U 01019A   18122.46561917  .00000115  00000-0  00000+0 0  9997
2 26766   2.1912  83.5892 0003837 336.6752  15.2031  1.00275537 62170
INTELSAT 901 (IS-901)   
1 26824U 01024A   18121.86849821 -.00000225  00000-0  00000+0 0  9997
2 26824   0.1424  91.5908 0002387 248.7914 162.5026  1.00271710 61831
ASTRA 2C                
1 26853U 01025A   18121.97363471  .00000136  00000-0  00000-0 0  9995
2 26853   1.0832  90.4635 0003119 312.3148 212.1672  0.99989853 15291
INTELSAT 902 (IS-902)   
1 26900U 01039A   18122.10969696  .00000021  00000-0  00000+0 0  9992
2 26900   0.0215 280.1172 0002877 123.0504 278.3071  1.00273803 61006
EUTELSAT 12 WEST B      
1 26927U 01042A   18121.87948160 -.00000112  00000-0  00000-0 0  9994
2 26927   0.0706 349.4118 0006520  54.2445 120.1983  1.00272790 60758
DIRECTV 4S              
1 26985U 01052A   18122.17047830 -.00000125  00000-0  00000+0 0  9990
2 26985   0.0121 268.2012 0003256 133.7596 138.2553  1.00272676 60236
ECHOSTAR 7              
1 27378U 02006A   18122.50879307 -.00000011  00000-0  00000+0 0  9990
2 27378   0.0564  93.7544 0002199 274.6892 276.3023  1.00271438 59301
INTELSAT 904 (IS-904)   
1 27380U 02007A   18122.16607804  .00000125  00000-0  00000+0 0  9992
2 27380   0.0099 234.9052 0003043 172.1295 277.8784  1.00271604 59325
TDRS 9                  
1 27389U 02011A   18121.79664019 -.00000111  00000-0  00000+0 0  9991
2 27389   5.9015  75.3325 0021619 263.2788 155.7398  1.00272542 60671
JCSAT 2A                
1 27399U 02015A   18121.92581244 -.00000266  00000-0  00000-0 0  9991
2 27399   1.1624  90.6495 0006227 192.5354   2.9257  1.00272761 59134
ASTRA 3A                
1 27400U 02015B   18121.70708935 -.00000292  00000-0  00000+0 0  9996
2 27400   4.4214  67.2743 0003312 334.5792  25.2613  1.00269211 58959
INTELSAT 903 (IS-903)   
1 27403U 02016A   18122.37829609 -.00000235  00000-0  00000+0 0  9993
2 27403   0.5286  94.3132 0002979 332.7794 257.8311  1.00272889 58886
NSS-7                   
1 27414U 02019A   18121.67132119 -.00000167  00000-0  00000-0 0  9998
2 27414   2.5592  81.3309 0002599 308.6587  51.2361  1.00272399 58801
DIRECTV 5 (TEMPO 1)     
1 27426U 02023A   18121.69604858 -.00000068  00000-0  00000-0 0  9992
2 27426   0.0150 248.3228 0003451 149.2941 322.4073  1.00270072 58565
INTELSAT 905 (IS-905)   
1 27438U 02027A   18121.87712622 -.00000196  00000-0  00000-0 0  9990
2 27438   0.0116 226.5625 0002606 159.5830 124.8759  1.00273269 21613
EXPRESS-A4              
1 27441U 02029A   18122.21985399 -.00000257  00000-0  00000+0 0  9995
2 27441   6.5893  54.5514 0006289  56.9217 333.1356  1.00267359 58213
GALAXY 3C (G-3C)        
1 27445U 02030A   18121.65423148 -.00000163  00000-0  00000+0 0  9993
2 27445   0.0181 291.8182 0001973  46.2289  21.9451  1.00273104 58199
EUTELSAT 5 WEST A       
1 27460U 02035A   18121.40488211 -.00000055  00000-0  00000-0 0  9991
2 27460   0.0503  16.3927 0006242  28.9438 314.7147  1.00272181 57860
N-STAR C                
1 27461U 02035B   18122.19632214 -.00000320  00000-0  00000+0 0  9997
2 27461   5.2186  63.0548 0004848 349.9960  13.7007  1.00271880 57900
EUTELSAT 36 WEST A      
1 27508U 02040A   18122.22409196  .00000043  00000-0  00000+0 0  9991
2 27508   0.0693  21.6757 0001439  54.5301 283.8113  1.00272281 57499
METEOSAT-8 (MSG-1)      
1 27509U 02040B   18121.43438253  .00000129  00000-0  00000-0 0  9996
2 27509   5.3891  57.1413 0002377 357.7444   2.1025  1.00271409 57494
INTELSAT 906 (IS-906)   
1 27513U 02041A   18122.03833806  .00000003  00000-0  00000+0 0  9992
2 27513   0.0183 251.1189 0002963 165.2343 241.5077  1.00271126 57203
HISPASAT 1D             
1 27528U 02044A   18122.37855781 -.00000227  00000-0  00000+0 0  9993
2 27528   0.0307 327.7778 0004873  56.0038 302.7320  1.00271145 57180
TDRS 10                 
1 27566U 02055A   18122.03123719  .00000068  00000-0  00000+0 0  9991
2 27566   5.5811  57.0154 0009549 260.7359  99.0025  1.00275938 56460
NSS-6                   
1 27603U 02057A   18122.38518142 -.00000280  00000-0  00000+0 0  9998
2 27603   0.0346 112.4586 0001402 272.3068  69.1311  1.00270744 56338
NIMIQ 2                 
1 27632U 02062A   18122.36296015 -.00000236  00000-0  00000+0 0  9997
2 27632   2.6632  80.5517 0005090  10.8633 349.0346  1.00272132 56123
INTELSAT 907 (IS-907)   
1 27683U 03007A   18121.46718945 -.00000215  00000-0  00000-0 0  9992
2 27683   0.0139 241.9648 0003094 157.3252 320.7328  1.00272602 55685
GALAXY 12 (G-12)        
1 27715U 03013B   18121.59840979  .00000047  00000-0  00000-0 0  9994
2 27715   0.0173 286.4192 0001981 146.2857 233.2014  1.00271394 22375
ASIASAT 4               
1 27718U 03014A   18122.09282032  .00000142  00000-0  00000+0 0  9999
2 27718   0.0623  98.1232 0000559 234.4435 319.0337  1.00275245 55155
HELLAS-SAT 2            
1 27811U 03020A   18122.46413616  .00000141  00000-0  00000+0 0  9994
2 27811   0.1510 115.2513 0001657 332.3235 338.8738  1.00274993 54583
THURAYA-2               
1 27825U 03026A   18121.08661763  .00000117  00000-0  00000-0 0  9994
2 27825   5.1958  30.3459 0004870 355.1681 268.6395  1.00275114 54577
OPTUS C1                
1 27831U 03028B   18121.91298015 -.00000159  00000-0  00000-0 0  9998
2 27831   0.0343 175.5528 0002892 235.7714 293.1423  1.00272269 23295
ECHOSTAR 12 (RAINBOW 1) 
1 27852U 03033A   18122.15191909 -.00000210  00000-0  00000+0 0  9995
2 27852   0.0129  78.2398 0001605 312.1513 157.9180  1.00272053 54205
GALAXY 23 (G-23)        
1 27854U 03034A   18121.74212628  .00000001  00000-0  00000-0 0  9992
2 27854   0.0168 270.8026 0002944 131.8680 323.1232  1.00271572 53979
GALAXY 13 (HORIZONS-1)  
1 27954U 03044A   18122.14389339  .00000037  00000-0  00000+0 0  9991
2 27954   0.0141 257.2800 0001270 138.8774 108.6385  1.00271273 53391
YAMAL 202               
1 28089U 03053A   18122.10716712  .00000108  00000-0  00000+0 0  9995
2 28089   0.0723  88.3316 0003635 298.3503 280.8596  1.00273572 52919
EXPRESS-AM22 (SESAT 2)  
1 28134U 03060A   18121.94033442 -.00000149  00000-0  00000-0 0  9994
2 28134   1.1338  90.1330 0000169 258.5466 289.7493  1.00271625 52513
AMC-10 (GE-10)          
1 28154U 04003A   18122.13658215  .00000077  00000-0  00000+0 0  9995
2 28154   0.0135 288.9328 0002870 138.1444  67.0849  1.00266624 52179
ABS-4 (MOBISAT-1)       
1 28184U 04007A   18121.93996250  .00000029  00000-0  00000-0 0  9991
2 28184   0.0240 280.6152 0001747 117.6502 220.9403  1.00271304 22569
EUTELSAT 7A             
1 28187U 04008A   18121.91795682  .00000036  00000-0  00000-0 0  9997
2 28187   0.0724  24.4604 0003777  35.7696 137.0013  1.00272863 51607
DIRECTV 7S              
1 28238U 04016A   18122.14546365 -.00000010  00000-0  00000+0 0  9993
2 28238   0.0148 307.7726 0003392 101.1199 104.4201  1.00273351 51302
AMC-11 (GE-11)          
1 28252U 04017A   18121.71207601  .00000057  00000-0  00000-0 0  9990
2 28252   0.0317  30.1680 0003366  21.9317 292.8269  1.00272950 51179
INTELSAT 10-02          
1 28358U 04022A   18121.91108208 -.00000023  00000-0  00000-0 0  9992
2 28358   0.0104 199.5293 0000168 144.4516 202.8068  1.00272049 50894
APSTAR 5 (TELSTAR 18)   
1 28364U 04024A   18121.91716701 -.00000306  00000-0  00000+0 0  9997
2 28364   0.0711  89.7165 0003214 307.9400 290.3086  1.00271031 50786
ANIK F2                 
1 28378U 04027A   18122.00344370 -.00000062  00000-0  00000+0 0  9994
2 28378   0.0155 301.3248 0000647 129.1153  39.5886  1.00272824 50595
AMC-15                  
1 28446U 04041A   18122.52893380 -.00000099  00000-0  00000+0 0  9993
2 28446   0.0658  82.5781 0002646 321.3384 261.8253  1.00271950 49632
AMC-16                  
1 28472U 04048A   18121.86508767 -.00000218  00000-0  00000-0 0  9991
2 28472   0.0476  77.1140 0002757 331.0565  37.9934  1.00272974 48982
NSS-10 (AMC-12)         
1 28526U 05003A   18122.16507606 -.00000262  00000-0  00000+0 0  9996
2 28526   0.0255 293.6747 0002965 115.1803 193.1463  1.00272541 48557
XTAR-EUR                
1 28542U 05005A   18122.30791571  .00000140  00000-0  00000+0 0  9992
2 28542   0.0139 264.4877 0003637 133.1516 322.3862  1.00270888 48421
XM-3 (RHYTHM)           
1 28626U 05008A   18122.44251647 -.00000216  00000-0  00000+0 0  9993
2 28626   0.0061  61.0648 0000275   5.5110 227.9128  1.00271695 48301
INMARSAT 4-F1           
1 28628U 05009A   18122.03531890 -.00000272  00000-0  00000+0 0  9994
2 28628   2.9201  16.4882 0003821  34.5298 325.0960  1.00271995 47916
APSTAR 6                
1 28638U 05012A   18121.90870559 -.00000330  00000-0  00000-0 0  9998
2 28638   0.0460  93.4933 0002098 307.7386 279.6627  1.00269064 72649
SPACEWAY 1              
1 28644U 05015A   18122.45113473 -.00000113  00000-0  00000+0 0  9992
2 28644   0.0102 236.0958 0000385 240.8157 162.8854  1.00269843 47755
DIRECTV 8               
1 28659U 05019A   18121.67040063 -.00000127  00000-0  00000-0 0  9995
2 28659   0.0174 277.2940 0003384 125.7251 317.0080  1.00272214 47375
GALAXY 28 (G-28)        
1 28702U 05022A   18121.86421531 -.00000197  00000-0  00000-0 0  9999
2 28702   0.0110 268.6302 0000098 154.3639  18.8559  1.00271948 22347
EXPRESS-AM3             
1 28707U 05023A   18122.32601824 -.00000332  00000-0  00000+0 0  9992
2 28707   0.0787  76.4012 0001142 285.7035  78.4329  1.00269135 47085
THAICOM 4               
1 28786U 05028A   18122.10466104 -.00000374  00000-0  00000+0 0  9996
2 28786   0.0145 287.7725 0002373 118.2813 331.0812  1.00268987 46560
GALAXY 14 (G-14)        
1 28790U 05030A   18122.14424234  .00000025  00000-0  00000+0 0  9998
2 28790   0.0037 307.8918 0002730  92.6197 106.4208  1.00271891 46549
ANIK F1R                
1 28868U 05036A   18122.14781900 -.00000086  00000-0  00000+0 0  9994
2 28868   0.0441  72.0198 0003388 324.4793 129.4174  1.00272527 46390
